{"type": "FeatureCollection", "features": [ {"type": "Feature", "properties": {"norad_id": 57401, "name": "TIANMU-1 09", "group": "weather", "lat": -69.29056289875808, "lon": -157.5459522247392, "alt_km": 493.08153879643396, "timestamp": "2025-12-19T04:59:47.942684+00:00", "meta": {"OBJECT_NAME": "TIANMU-1 09", "OBJECT_ID": "2023-101C", "EPOCH": "2025-12-18T23:11:21.617952", "MEAN_MOTION": 15.2817292, "ECCENTRICITY": 0.00065991, "INCLINATION": 97.2817, "RA_OF_ASC_NODE": 41.9863, "ARG_OF_PERICENTER": 67.002, "MEAN_ANOMALY": 293.1915, "EPHEMERIS_TYPE": 0, "CLASSIFICATION_TYPE": "U", "NORAD_CAT_ID": 57401, "ELEMENT_SET_NO": 999, "REV_AT_EPOCH": 13410, "BSTAR": 0.00022441362, "MEAN_MOTION_DOT": 6.093e-05, "MEAN_MOTION_DDOT": 0}, "tle": {"line1": "1 57401U 23101C   25352.96622243  .00006093  00000+0  22441-3 0  9998", "line2": "2 57401  97.2817  41.9863 0006599  67.0020 293.1915 15.28172920134104"}}, "geometry": {"type": "Point", "coordinates": [-157.5459522247392, -69.29056289875808]}}, {"type": "Feature", "properties": {"norad_id": 57402, "name": "TIANMU-1 10", "group": "weather", "lat": 61.3269692515231, "lon": 29.5421026227649, "alt_km": 469.6750479335442, "timestamp": "2025-12-19T04:59:47.942697+00:00", "meta": {"OBJECT_NAME": "TIANMU-1 10", "OBJECT_ID": "2023-101D", "EPOCH": "2025-12-18T22:26:23.019360", "MEAN_MOTION": 15.2816395, "ECCENTRICITY": 0.00083007, "INCLINATION": 97.2897, "RA_OF_ASC_NODE": 42.812, "ARG_OF_PERICENTER": 65.6221, "MEAN_ANOMALY": 294.5884, "EPHEMERIS_TYPE": 0, "CLASSIFICATION_TYPE": "U", "NORAD_CAT_ID": 57402, "ELEMENT_SET_NO": 999, "REV_AT_EPOCH": 13409, "BSTAR": 0.00022027239, "MEAN_MOTION_DOT": 5.979e-05, "MEAN_MOTION_DDOT": 0}, "tle": {"line1": "1 57402U 23101D   25352.93498865  .00005979  00000+0  22027-3 0  9999", "line2": "2 57402  97.2897  42.8120 0008300  65.6221 294.5884 15.28163950134099"}}, "geometry": {"type": "Point", "coordinates": [29.5421026227649, 61.3269692515231]}}, {"type": "Feature", "properties": {"norad_id": 57490, "name": "FENGYUN 3F", "group": "weather", "lat": -33.74094202021198, "lon": 67.27243148778727, "alt_km": 832.2653106874268, "timestamp": "2025-12-19T04:59:47.942707+00:00", "meta": {"OBJECT_NAME": "FENGYUN 3F", "OBJECT_ID": "2023-111A", "EPOCH": "2025-12-18T22:23:32.904672", "MEAN_MOTION": 14.19895119, "ECCENTRICITY": 7.283e-05, "INCLINATION": 98.7076, "RA_OF_ASC_NODE": 61.1263, "ARG_OF_PERICENTER": 111.5028, "MEAN_ANOMALY": 248.6226, "EPHEMERIS_TYPE": 0, "CLASSIFICATION_TYPE": "U", "NORAD_CAT_ID": 57490, "ELEMENT_SET_NO": 999, "REV_AT_EPOCH": 12328, "BSTAR": 5.27009e-05, "MEAN_MOTION_DOT": 6.8e-07, "MEAN_MOTION_DDOT": 0}, "tle": {"line1": "1 57490U 23111A   25352.93301973  .00000068  00000+0  52701-4 0  9997", "line2": "2 57490  98.7076  61.1263 0000728 111.5028 248.6226 14.19895119123282"}}, "geometry": {"type": "Point", "coordinates": [67.27243148778727, -33.74094202021198]}}, {"type": "Feature", "properties": {"norad_id": 58584, "name": "ARKTIKA-M 2", "group": "weather", "lat": 41.05059601631735, "lon": -31.924339734306397, "alt_km": 21126.264796259493, "timestamp": "2025-12-19T04:59:47.942719+00:00", "meta": {"OBJECT_NAME": "ARKTIKA-M 2", "OBJECT_ID": "2023-198A", "EPOCH": "2025-12-17T19:31:00.124032", "MEAN_MOTION": 2.0060326, "ECCENTRICITY": 0.68652638, "INCLINATION": 63.225, "RA_OF_ASC_NODE": 174.3391, "ARG_OF_PERICENTER": 268.0846, "MEAN_ANOMALY": 18.8392, "EPHEMERIS_TYPE": 0, "CLASSIFICATION_TYPE": "U", "NORAD_CAT_ID": 58584, "ELEMENT_SET_NO": 999, "REV_AT_EPOCH": 1468, "BSTAR": 0, "MEAN_MOTION_DOT": 2.02e-06, "MEAN_MOTION_DDOT": 0}, "tle": {"line1": "1 58584U 23198A   25351.81319588  .00000202  00000+0  00000+0 0  9994", "line2": "2 58584  63.2250 174.3391 6865263 268.0846  18.8392  2.00603260 14687"}}, "geometry": {"type": "Point", "coordinates": [-31.924339734306397, 41.05059601631735]}}, {"type": "Feature", "properties": {"norad_id": 58645, "name": "TIANMU-1 11", "group": "weather", "lat": 19.406779776308312, "lon": -164.67201109038552, "alt_km": 494.84886882325554, "timestamp": "2025-12-19T04:59:47.942731+00:00", "meta": {"OBJECT_NAME": "TIANMU-1 11", "OBJECT_ID": "2023-205A", "EPOCH": "2025-12-18T23:34:11.020800", "MEAN_MOTION": 15.24673351, "ECCENTRICITY": 0.00075889, "INCLINATION": 97.3597, "RA_OF_ASC_NODE": 12.496, "ARG_OF_PERICENTER": 284.0175, "MEAN_ANOMALY": 76.0219, "EPHEMERIS_TYPE": 0, "CLASSIFICATION_TYPE": "U", "NORAD_CAT_ID": 58645, "ELEMENT_SET_NO": 999, "REV_AT_EPOCH": 11004, "BSTAR": 0.00019596909, "MEAN_MOTION_DOT": 4.774e-05, "MEAN_MOTION_DDOT": 0}, "tle": {"line1": "1 58645U 23205A   25352.98207200  .00004774  00000+0  19597-3 0  9990", "line2": "2 58645  97.3597  12.4960 0007588 284.0175  76.0219 15.24673351110045"}}, "geometry": {"type": "Point", "coordinates": [-164.67201109038552, 19.406779776308312]}}, {"type": "Feature", "properties": {"norad_id": 58646, "name": "TIANMU-1 12", "group": "weather", "lat": 9.752580197533863, "lon": 11.248699239154188, "alt_km": 495.06260253780965, "timestamp": "2025-12-19T04:59:47.942741+00:00", "meta": {"OBJECT_NAME": "TIANMU-1 12", "OBJECT_ID": "2023-205B", "EPOCH": "2025-12-19T00:13:40.487232", "MEAN_MOTION": 15.24558099, "ECCENTRICITY": 0.00057624, "INCLINATION": 97.3585, "RA_OF_ASC_NODE": 12.3263, "ARG_OF_PERICENTER": 262.7154, "MEAN_ANOMALY": 97.3429, "EPHEMERIS_TYPE": 0, "CLASSIFICATION_TYPE": "U", "NORAD_CAT_ID": 58646, "ELEMENT_SET_NO": 999, "REV_AT_EPOCH": 11003, "BSTAR": 0.00021676516, "MEAN_MOTION_DOT": 5.269e-05, "MEAN_MOTION_DDOT": 0}, "tle": {"line1": "1 58646U 23205B   25353.00949638  .00005269  00000+0  21677-3 0  9995", "line2": "2 58646  97.3585  12.3263 0005762 262.7154  97.3429 15.24558099110039"}}, "geometry": {"type": "Point", "coordinates": [11.248699239154188, 9.752580197533863]}}, {"type": "Feature", "properties": {"norad_id": 58647, "name": "TIANMU-1 13", "group": "weather", "lat": -6.901985978842313, "lon": -168.17162752268322, "alt_km": 493.277380685362, "timestamp": "2025-12-19T04:59:47.942752+00:00", "meta": {"OBJECT_NAME": "TIANMU-1 13", "OBJECT_ID": "2023-205C", "EPOCH": "2025-12-18T23:27:12.957120", "MEAN_MOTION": 15.24601029, "ECCENTRICITY": 0.00062035, "INCLINATION": 97.3613, "RA_OF_ASC_NODE": 12.4981, "ARG_OF_PERICENTER": 239.2334, "MEAN_ANOMALY": 120.8293, "EPHEMERIS_TYPE": 0, "CLASSIFICATION_TYPE": "U", "NORAD_CAT_ID": 58647, "ELEMENT_SET_NO": 999, "REV_AT_EPOCH": 11002, "BSTAR": 0.00020233256, "MEAN_MOTION_DOT": 4.92e-05, "MEAN_MOTION_DDOT": 0}, "tle": {"line1": "1 58647U 23205C   25352.97723330  .00004920  00000+0  20233-3 0  9990", "line2": "2 58647  97.3613  12.4981 0006203 239.2334 120.8293 15.24601029110022"}}, "geometry": {"type": "Point", "coordinates": [-168.17162752268322, -6.901985978842313]}}, {"type": "Feature", "properties": {"norad_id": 58648, "name": "TIANMU-1 14", "group": "weather", "lat": -79.45649195595581, "lon": 56.011093327700216, "alt_km": 495.39259825107274, "timestamp": "2025-12-19T04:59:47.942761+00:00", "meta": {"OBJECT_NAME": "TIANMU-1 14", "OBJECT_ID": "2023-205D", "EPOCH": "2025-12-18T23:03:24.556896", "MEAN_MOTION": 15.24583967, "ECCENTRICITY": 0.00069445, "INCLINATION": 97.3545, "RA_OF_ASC_NODE": 11.8249, "ARG_OF_PERICENTER": 245.3581, "MEAN_ANOMALY": 114.6934, "EPHEMERIS_TYPE": 0, "CLASSIFICATION_TYPE": "U", "NORAD_CAT_ID": 58648, "ELEMENT_SET_NO": 999, "REV_AT_EPOCH": 11002, "BSTAR": 0.00020386921, "MEAN_MOTION_DOT": 4.956e-05, "MEAN_MOTION_DDOT": 0}, "tle": {"line1": "1 58648U 23205D   25352.96070089  .00004956  00000+0  20387-3 0  9995", "line2": "2 58648  97.3545  11.8249 0006944 245.3581 114.6934 15.24583967110024"}}, "geometry": {"type": "Point", "coordinates": [56.011093327700216, -79.45649195595581]}}, {"type": "Feature", "properties": {"norad_id": 58660, "name": "TIANMU-1 19", "group": "weather", "lat": -69.36885048688019, "lon": -96.0747061336112, "alt_km": 486.5053282583149, "timestamp": "2025-12-19T04:59:47.942777+00:00", "meta": {"OBJECT_NAME": "TIANMU-1 19", "OBJECT_ID": "2023-208A", "EPOCH": "2025-12-18T23:11:15.309024", "MEAN_MOTION": 15.27959998, "ECCENTRICITY": 0.00043708, "INCLINATION": 97.4393, "RA_OF_ASC_NODE": 103.9913, "ARG_OF_PERICENTER": 225.4029, "MEAN_ANOMALY": 134.6854, "EPHEMERIS_TYPE": 0, "CLASSIFICATION_TYPE": "U", "NORAD_CAT_ID": 58660, "ELEMENT_SET_NO": 999, "REV_AT_EPOCH": 10977, "BSTAR": 0.0002727554, "MEAN_MOTION_DOT": 7.369e-05, "MEAN_MOTION_DDOT": 0}, "tle": {"line1": "1 58660U 23208A   25352.96614941  .00007369  00000+0  27276-3 0  9998", "line2": "2 58660  97.4393 103.9913 0004370 225.4029 134.6854 15.27959998109775"}}, "geometry": {"type": "Point", "coordinates": [-96.0747061336112, -69.36885048688019]}}, {"type": "Feature", "properties": {"norad_id": 58661, "name": "TIANMU-1 20", "group": "weather", "lat": -7.445008357312821, "lon": 105.66449234951284, "alt_km": 484.1484171050997, "timestamp": "2025-12-19T04:59:47.942802+00:00", "meta": {"OBJECT_NAME": "TIANMU-1 20", "OBJECT_ID": "2023-208B", "EPOCH": "2025-12-18T22:44:50.595648", "MEAN_MOTION": 15.2914977, "ECCENTRICITY": 0.00064841, "INCLINATION": 97.4331, "RA_OF_ASC_NODE": 104.4268, "ARG_OF_PERICENTER": 239.767, "MEAN_ANOMALY": 120.2929, "EPHEMERIS_TYPE": 0, "CLASSIFICATION_TYPE": "U", "NORAD_CAT_ID": 58661, "ELEMENT_SET_NO": 999, "REV_AT_EPOCH": 10984, "BSTAR": 0.00026698553, "MEAN_MOTION_DOT": 7.482e-05, "MEAN_MOTION_DDOT": 0}, "tle": {"line1": "1 58661U 23208B   25352.94780782  .00007482  00000+0  26699-3 0  9998", "line2": "2 58661  97.4331 104.4268 0006484 239.7670 120.2929 15.29149770109848"}}, "geometry": {"type": "Point", "coordinates": [105.66449234951284, -7.445008357312821]}}]}